STARLINK-35749          
1 66879U 25283B   25354.25003472 -.00064110  00000+0 -43629-3 0  9998
2 66879  53.1574  36.1377 0001320  78.0529 149.8485 15.74213426  3633
STARLINK-35844          
1 66880U 25283C   25354.25003472 -.00083886  00000+0 -57320-3 0  9994
2 66880  53.1575  36.1421 0000941  67.3084 158.6711 15.74228433  3635
STARLINK-35860          
1 66881U 25283D   25354.25003472 -.00053390  00000+0 -36234-3 0  9993
2 66881  53.1574  36.1334 0001271  98.3295 131.4980 15.74201644  3635
STARLINK-35912          
1 66882U 25283E   25354.25003472 -.00030538  00000+0 -20498-3 0  9998
2 66882  53.1575  36.1302 0001054  75.4028 156.3445 15.74187921  3634
STARLINK-35947          
1 66883U 25283F   25354.25003472 -.00069856  00000+0 -47616-3 0  9995
2 66883  53.1576  36.1263 0001134  93.4828 140.1760 15.74211680  3685
STARLINK-36057          
1 66884U 25283G   25354.25003472 -.00046803  00000+0 -31676-3 0  9992
2 66884  53.1576  36.1177 0000920  67.4128 170.0633 15.74209881  3632
STARLINK-35954          
1 66885U 25283H   25354.25003472 -.00079234  00000+0 -54124-3 0  9990
2 66885  53.1575  36.1215 0000643 100.1614 135.4099 15.74213634  3634
STARLINK-35900          
1 66886U 25283J   25354.25003472 -.00095128  00000+0 -65144-3 0  9995
2 66886  53.1574  36.1131 0000941 101.9066 137.4902 15.74229473  3635
STARLINK-35925          
1 66887U 25283K   25354.25003472 -.00043261  00000+0 -29226-3 0  9998
2 66887  53.1577  36.1095 0000486  68.2289 173.0671 15.74217442  3636
STARLINK-35919          
1 66888U 25283L   25354.25003472 -.00091394  00000+0 -62548-3 0  9993
2 66888  53.1575  36.1052 0001104  92.6798 150.5527 15.74226806  3636
STARLINK-35852          
1 66889U 25283M   25354.25003472 -.00095668  00000+0 -65508-3 0  9991
2 66889  53.1572  36.1010 0000643  82.9248 162.2136 15.74234345  3630
STARLINK-35885          
1 66890U 25283N   25354.25003472 -.00098167  00000+0 -67238-3 0  9992
2 66890  53.1575  36.0973 0001107  74.9403 172.1120 15.74237300  3639
